[{"OBJECT_NAME":"WILDFIRE 3","OBJECT_ID":"2023-133C","EPOCH":"2026-03-09T13:27:52.032096","MEAN_MOTION":13.86127534,"ECCENTRICITY":0.0007641,"INCLINATION":80.9933,"RA_OF_ASC_NODE":101.7887,"ARG_OF_PERICENTER":262.5942,"MEAN_ANOMALY":97.4346,"EPHEMERIS_TYPE":0,"CLASSIFICATION_TYPE":"U","NORAD_CAT_ID":57758,"ELEMENT_SET_NO":999,"REV_AT_EPOCH":12729,"BSTAR":6.7379e-5,"MEAN_MOTION_DOT":8.9e-7,"MEAN_MOTION_DDOT":0},{"OBJECT_NAME":"FENGYUN 1C DEB","OBJECT_ID":"1999-025CLY","EPOCH":"2026-03-09T12:06:33.222816","MEAN_MOTION":13.75514042,"ECCENTRICITY":0.02035571,"INCLINATION":99.3355,"RA_OF_ASC_NODE":324.1159,"ARG_OF_PERICENTER":36.1298,"MEAN_ANOMALY":325.3411,"EPHEMERIS_TYPE":0,"CLASSIFICATION_TYPE":"U","NORAD_CAT_ID":31921,"ELEMENT_SET_NO":999,"REV_AT_EPOCH":93499,"BSTAR":0.001852235,"MEAN_MOTION_DOT":2.032e-5,"MEAN_MOTION_DDOT":0}]
